CCSDS_OMM_VERS = 2.0
CREATION_DATE  = 
ORIGINATOR     = 

OBJECT_NAME    = CZ-2C R/B
OBJECT_ID      = 2022-132E
CENTER_NAME    = EARTH
REF_FRAME      = TEME
TIME_SYSTEM    = UTC
MEAN_ELEMENT_THEORY = SGP/SGP4

EPOCH          = 2025-12-12T00:39:19.778400
MEAN_MOTION    = 15.54742574
ECCENTRICITY   = .0023241
INCLINATION    = 97.2952
RA_OF_ASC_NODE = 342.2123
ARG_OF_PERICENTER = 59.5587
MEAN_ANOMALY   = 300.7959

EPHEMERIS_TYPE = 0
CLASSIFICATION_TYPE = U
NORAD_CAT_ID   = 54039
ELEMENT_SET_NO = 999
REV_AT_EPOCH   = 17672
BSTAR          = .67805E-3
MEAN_MOTION_DOT = .45651E-3
MEAN_MOTION_DDOT = 0

CCSDS_OMM_VERS = 2.0
CREATION_DATE  = 
ORIGINATOR     = 

OBJECT_NAME    = GSLV R/B
OBJECT_ID      = 2022-138AN
CENTER_NAME    = EARTH
REF_FRAME      = TEME
TIME_SYSTEM    = UTC
MEAN_ELEMENT_THEORY = SGP/SGP4

EPOCH          = 2025-12-12T02:52:52.007232
MEAN_MOTION    = 14.96125055
ECCENTRICITY   = .0024079
INCLINATION    = 87.3828
RA_OF_ASC_NODE = 195.6816
ARG_OF_PERICENTER = 107.4254
MEAN_ANOMALY   = 252.9613

EPHEMERIS_TYPE = 0
CLASSIFICATION_TYPE = U
NORAD_CAT_ID   = 54149
ELEMENT_SET_NO = 999
REV_AT_EPOCH   = 17083
BSTAR          = .3942E-3
MEAN_MOTION_DOT = .4487E-4
MEAN_MOTION_DDOT = 0

CCSDS_OMM_VERS = 2.0
CREATION_DATE  = 
ORIGINATOR     = 

OBJECT_NAME    = XRISM
OBJECT_ID      = 2023-137A
CENTER_NAME    = EARTH
REF_FRAME      = TEME
TIME_SYSTEM    = UTC
MEAN_ELEMENT_THEORY = SGP/SGP4

EPOCH          = 2025-12-11T15:28:16.463136
MEAN_MOTION    = 15.10326363
ECCENTRICITY   = .000768
INCLINATION    = 31.0009
RA_OF_ASC_NODE = 132.6140
ARG_OF_PERICENTER = 234.5951
MEAN_ANOMALY   = 125.3971

EPHEMERIS_TYPE = 0
CLASSIFICATION_TYPE = U
NORAD_CAT_ID   = 57800
ELEMENT_SET_NO = 999
REV_AT_EPOCH   = 12446
BSTAR          = .5167665E-3
MEAN_MOTION_DOT = .8786E-4
MEAN_MOTION_DDOT = 0

CCSDS_OMM_VERS = 2.0
CREATION_DATE  = 
ORIGINATOR     = 

OBJECT_NAME    = ACS3
OBJECT_ID      = 2024-077B
CENTER_NAME    = EARTH
REF_FRAME      = TEME
TIME_SYSTEM    = UTC
MEAN_ELEMENT_THEORY = SGP/SGP4

EPOCH          = 2025-12-12T04:13:47.936064
MEAN_MOTION    = 13.85454135
ECCENTRICITY   = .0077658
INCLINATION    = 97.2686
RA_OF_ASC_NODE = 301.9081
ARG_OF_PERICENTER = 339.5275
MEAN_ANOMALY   = 20.2778

EPHEMERIS_TYPE = 0
CLASSIFICATION_TYPE = U
NORAD_CAT_ID   = 59588
ELEMENT_SET_NO = 999
REV_AT_EPOCH   = 8206
BSTAR          = .34724E-1
MEAN_MOTION_DOT = .40686E-3
MEAN_MOTION_DDOT = 0

CCSDS_OMM_VERS = 2.0
CREATION_DATE  = 
ORIGINATOR     = 

OBJECT_NAME    = SZ-21 MODULE
OBJECT_ID      = 2025-246C
CENTER_NAME    = EARTH
REF_FRAME      = TEME
TIME_SYSTEM    = UTC
MEAN_ELEMENT_THEORY = SGP/SGP4

EPOCH          = 2025-12-12T03:44:14.440416
MEAN_MOTION    = 15.62436812
ECCENTRICITY   = .000633
INCLINATION    = 41.4775
RA_OF_ASC_NODE = 19.6084
ARG_OF_PERICENTER = 257.1600
MEAN_ANOMALY   = 102.8532

EPHEMERIS_TYPE = 0
CLASSIFICATION_TYPE = U
NORAD_CAT_ID   = 66515
ELEMENT_SET_NO = 999
REV_AT_EPOCH   = 435
BSTAR          = .37242E-3
MEAN_MOTION_DOT = .33863E-3
MEAN_MOTION_DDOT = 0

